[Satellite]
VERSION=1.1
NAME=CUTE-1 (CO-55)
NICKNAME=CO-55
TLE1=1 27844U 03031E   15055.03316051  .00000339  00000-0  17415-3 0  9993
TLE2=2 27844  98.6977  65.1719 0008628 265.8324 159.0243 14.21720545604360
